#dP2024  3  3 18  0  0.00000000      96 __u+U IGS20 EXT  IAC
## 2304  64800.00000000   900.00000000 60372 0.7500000000000
+  118   C06C07C08C09C10C11C12C13C14C16C19C20C21C22C23C24C25
+        C26C27C28C29C30C32C33C34C35C36C37C38C39C40C41C42C43
+        C44C45C46E02E03E04E05E07E08E09E10E11E12E13E14E15E18
+        E19E21E24E25E26E27E30E31E33E34E36G01G02G03G04G05G06
+        G07G08G09G10G11G12G13G14G15G16G17G18G19G20G21G22G23
+        G24G25G26G27G28G29G30G31G32J02J04R01R02R03R04R05R07
+        R08R09R11R12R13R14R15R16R17R18R19R20R21R22R24R26  0
++        10 10 12  9 10 10  9 11  8 10  9 10  8  8  8  9  9
++         8  7  8  8  7  9  7  7  9  8  9  9 10 10  7 10  8
++         7  8  9  7  7  8  7  7  6  7  8  7  7  8  6  8  6
++         6  7  8  8  8  7  7  7  7  8  9  7  7  5  6  7  6
++         7  6  5  7  5  7  7  7  8  6  6  7  7  6  7  6  7
++         7  6  8  7  6  7  7  7  6 11 10  8  7  9  9  8  8
++         8  8  7  7  9  8  7  7  8  7  7 10  6  8  8  8  0
%c M  cc GPS ccc cccc cccc cccc cccc ccccc ccccc ccccc ccccc
%c cc cc ccc ccc cccc cccc cccc cccc ccccc ccccc ccccc ccccc
%f  0.0000000  0.000000000  0.00000000000  0.000000000000000
%f  0.0000000  0.000000000  0.00000000000  0.000000000000000
%i    0    0    0    0      0      0      0      0         0
%i    0    0    0    0      0      0      0      0         0
/* IAC                                ULTRA-RAPID PREDICTION
/* S/V CLOCKS ARE ALIGNED TO GNSS TIME                      
/* G:C1WC2W R:C1PC2P E:C1XC5X C:C2IC6I J:C1CC2S             
/* PCV:IGS20_2290 OL/AL:FES2004  NONE     YN ORB:CoN CLK:CoN
*  2024 03 04  7 30  0.00000000
PC06  -3528.451973  37842.039591 -17901.939431    249.697603
PC07 -10897.603128  26059.429135  31356.469258   -900.076769
PC08 -20075.602992  33848.657612 -15411.969568     -9.378488
PC09   1272.218912  40493.919948  -9975.015297   -573.344228
PC10  -1656.199718  27711.372651  32078.181291     59.760468
PC11  -3025.084229  19675.652018  19625.613248    442.067881
PC12 -16268.791426   2528.406576  22570.134110   -205.774661
PC13 -12602.556438  33956.067415 -21642.870354    422.300414
PC14 -12276.890127  14714.003267 -20246.172230    327.223610
PC16  -5415.851671  36011.917493 -20668.327627   -375.831650
PC19   1518.490882 -15715.710372  23041.617792   -921.749878
PC20  19840.644156 -11996.588749  15571.251668   -222.546896
PC21 -27805.973915    562.089204   2127.928065   -961.459676
PC22 -18762.762276 -10643.202122  17691.532276    -87.454739
PC23   8197.558927  17088.444865  20480.459781   -777.760859
PC24 -17179.996915  19860.894324  -9499.450869    940.265500
PC25  -5398.961288  26149.227266   8134.499582    341.012619
PC26 -18046.514001   2998.048240 -21103.147995   -257.866450
PC27  19834.808375   6227.105983 -18628.913083    279.791490
PC28  18266.857516  20352.108062  -5542.292663    213.180234
PC29  -5480.547093 -23762.308687 -13579.299062    249.936799
PC30  11042.975439 -11931.391052 -22691.964716    -33.206184
PC32  27819.654080   -769.556757  -2158.381886   -577.213358
PC33  -1481.435460  15735.365593 -22988.622211   -954.147733
PC34  -9913.370735  13289.981562  22429.851922    382.582895
PC35 -18989.074007 -19758.852807   5371.542450    419.349031
PC36   6297.688044 -26043.611771  -7765.926579      6.428379
PC37  17977.786538  -2097.398042  21236.957638   -941.207272
PC38 -23870.833670  34082.239269  -7167.924169    140.582813
PC39  -8158.095910  32039.584333 -25975.304940     -7.421225
PC40 -15862.004198  19274.741750  33926.086258    -59.218895
PC41  18133.177723  10938.144650 -18123.060795   -899.891107
PC42 -21094.911587  11325.846907 -14260.749430   -449.418740
PC43   4605.060203  23537.642325  14233.044640     62.787365
PC44 -20212.261365  -5626.791877  18401.610801    402.857781
PC45  -8187.295359 -16906.697914 -20638.330384    -73.738620
PC46  16849.756016 -20434.770089   8713.689920   -128.812206
PE02 -13681.974341  20800.437567  16013.395240    108.376535
PE03  -2664.476713  17508.327433 -23717.883060    -97.905343
PE04 -17405.838487 -20136.377187  12962.407936   -341.545622
PE05 -20871.047424   4692.419683 -20450.913254   4725.805214
PE07  26964.852463  11220.083136   4851.008269   -107.016687
PE08  16858.329360  20183.362185 -13592.173106   -233.450460
PE09 -26928.226335 -11320.183603  -4739.551595   -357.994680
PE10 -12255.536844 -19426.815925  18668.990434   -606.635040
PE11 -15446.322209  -8522.921815  23765.283444   3203.121734
PE12  -7595.298469 -26290.713565  11314.996090   -933.069396
PE13  15264.352044   9226.446283 -23613.693978    -20.401056
PE14  12834.134066  21613.724284  13912.671706     56.658991
PE15   7278.046196  26555.596046 -10835.872377    -89.249327
PE18    477.824801 -19776.320498 -20053.929544    396.051152
PE19   5014.743195 -16346.921386  24173.681199   -498.561196
PE21  25812.873104 -14450.297663    935.964219   -582.148921
PE24 -23276.961490  -1091.579991 -18289.914465   -631.962782
PE25 -25941.305612  14203.143989  -1338.797905      1.670801
PE26  14156.616587 -13854.699066 -21991.297791    386.423710
PE27  23432.775335    675.626042  18059.001032   -290.004632
PE30   7018.359533  15401.389090  24267.098826    -59.380581
PE31  -7280.764977 -15211.791002 -24327.276957    -17.426650
PE33   5175.932344 -27848.489386  -8595.397035      8.508776
PE34  -4798.439527  28066.336602   8086.450096    -98.034258
PE36 -14202.833882  13167.691523  22383.552695   -194.411780
PG01 -11553.073509  15324.611642  17869.738616    172.233625
PG02 -14465.724502   6100.713415  21884.783849   -475.862259
PG03 -23417.500648  11939.599228   3188.538202    231.159466
PG04 -20140.281179   2106.385348 -17239.020559    306.566802
PG05  21854.614043  -2448.791865 -15129.564230   -164.098021
PG06   5950.147652  24406.917225  -8376.772774    382.520716
PG07  -5918.906568  23709.755189  -9300.654947    -76.266426
PG08 -24382.535914  -4034.465602  10182.461751     29.400392
PG09  -8332.694044  12916.128745 -21743.372507    112.710193
PG10    467.702237 -16635.558044  20826.907826      0.825645
PG11  11959.108115  15793.791494 -17689.876448   -595.779194
PG12  24263.322333  -9997.104660   3577.788015   -483.879017
PG13  22675.657844  13514.178539   3681.157201    631.060582
PG14  -4706.821374  18299.158464  18614.594671    341.599793
PG15  24682.029291   1362.121680   9489.201682    134.028899
PG16 -19290.241603  -4494.788686 -18244.638646   -349.088642
PG17   4618.597538  18239.452315  19107.461873    714.934853
PG18   5679.636854 -24285.123943  -8844.167053   -568.505920
PG19  13846.978304  19363.914497  11965.185061    449.141015
PG20  13942.689719   7726.940427 -21161.232057    385.222897
PG21 -15561.035326   -680.609116  22040.682982    132.687703
PG22   2863.009427  15570.102751  21786.687308     21.427194
PG23  12702.025089 -19094.985799  13255.648714    169.381217
PG24  15187.774774  -3774.434976  21028.205510   -441.241222
PG25  19208.516339 -17288.062727  -5812.095497    490.358084
PG26 -10356.960844 -12132.165294 -21394.131212    183.538534
PG27 -23270.298047 -13257.550103  -1231.256004     -9.106074
PG28  -5545.659910 -25374.465362  -5581.945071   -152.041129
PG29  10988.923813 -10601.986087 -21792.132131   -605.654797
PG30   1255.715397  26376.723531    673.297426   -424.488377
PG31 -10498.715425 -19506.612769 -14562.234269   -227.920484
PG32  -9161.754051 -18346.720989  17194.849627   -614.502697
PJ02 -31449.307943  27046.939603  12778.109022     -2.560127
PJ04 -30627.487723  21533.102588 -14379.578149     50.771973
PR01  22215.583834   6807.761874 -10534.505546     78.767095
PR02  24497.598841   -406.275825   7027.263229    -22.542091
PR03  12927.935229  -8250.213434  20417.121198     95.711218
PR04  -5272.644671 -11072.592964  22403.458032    226.067351
PR05 -20745.880096  -8266.589804  12365.501947    127.869698
PR07 -12211.960464   8447.972835 -20708.180524     77.172132
PR08   5591.276210  11101.741155 -22203.226913    -74.620554
PR09 -16769.950620  10376.496954 -16116.919863    173.397066
PR11  -5587.475239  19999.158068  14809.349916     32.395158
PR12   8838.681201   6620.810451  23011.466181     37.404539
PR13  16263.094986  -8199.846421  17836.357954    -44.962070
PR14  14898.086046 -20715.078435    323.973061     26.160028
PR15   4592.636592 -19412.693590 -15887.470343     81.669362
PR16  -8547.334180  -6758.171193 -23060.986935     23.741338
PR17   3031.174424 -15740.113194 -19822.868661     66.114454
PR18  -6691.292256 -23708.221578  -6718.167968    130.406493
PR19 -12038.160215 -20895.803768   8321.828697   -268.093657
PR20 -11807.407665  -2880.296659  22443.110815   -109.225303
PR21  -2964.717554  15872.753711  19753.319980    -81.796355
PR22   6457.879063  24012.502575   5674.950101    111.077424
PR24  12143.067923   1571.841057 -22361.107538    -46.379597
PR26   4597.287650  11082.149881 -22487.554541   -195.370575
EOF
